ONEWEB-0238             
1 48784U 21045T   26003.26943202  .00000105  00000+0  24406-3 0  9996
2 48784  87.9011 292.0823 0001313  89.4351 270.6930 13.15549730222699
ONEWEB-0240             
1 48785U 21045U   26003.29067489 -.00000021  00000+0 -90191-4 0  9998
2 48785  87.9019 292.0755 0001401  65.5957 294.5319 13.15547441222724
ONEWEB-0246             
1 48786U 21045V   26003.28512887 -.00000086  00000+0 -26265-3 0  9996
2 48786  87.9019 292.0864 0001760  72.8068 287.3255 13.15547575222590
ONEWEB-0210             
1 48787U 21045W   26003.25978016  .00000211  00000+0  52542-3 0  9999
2 48787  87.9011 292.0902 0002009  58.8594 301.2734 13.15548415222638
ONEWEB-0214             
1 48788U 21045X   26003.26849627  .00000123  00000+0  29385-3 0  9997
2 48788  87.9021 292.0816 0001999  66.6563 293.4777 13.15550488222603
ONEWEB-0221             
1 48789U 21045Y   26003.27562818 -.00000053  00000+0 -17569-3 0  9998
2 48789  87.9013 292.0931 0001582  67.3765 292.7532 13.15548249222695
ONEWEB-0213             
1 48790U 21045Z   26003.26453386  .00000153  00000+0  37289-3 0  9998
2 48790  87.9003 292.1012 0001756  62.5702 297.5607 13.15548091222756
ONEWEB-0212             
1 48791U 21045AA  26003.24156744  .00000337  00000+0  86032-3 0  9999
2 48791  87.9014 292.0979 0001594  74.5894 285.5413 13.15548315222745
ONEWEB-0227             
1 48792U 21045AB  26003.24077207  .00000172  00000+0  42151-3 0  9997
2 48792  87.9002 292.1062 0001566  72.1982 287.9319 13.15548041222699
ONEWEB-0226             
1 48793U 21045AC  26003.23442945  .00000144  00000+0  34727-3 0  9991
2 48793  87.9005 292.1169 0001832  64.5917 295.5403 13.15548905222665
ONEWEB-0224             
1 48794U 21045AD  26003.27403835  .00000037  00000+0  65496-4 0  9990
2 48794  87.9006 292.1440 0000746  61.5665 298.5541 13.15550186222591
ONEWEB-0233             
1 48795U 21045AE  26003.27865243 -.00000016  00000+0 -77841-4 0  9992
2 48795  87.9003 292.1533 0001506  64.2522 295.8763 13.15548195222615
ONEWEB-0190             
1 48796U 21045AF  26003.26610312  .00000005  00000+0 -19473-4 0  9991
2 48796  87.9008 292.1166 0001728  49.3572 310.7709 13.15551309222683
ONEWEB-0236             
1 48797U 21045AG  26003.28354371 -.00000073  00000+0 -22729-3 0  9997
2 48797  87.9007 292.1247 0001560  81.6732 278.4576 13.15548201222571
ONEWEB-0248             
1 48798U 21045AH  26003.29623190 -.00000039  00000+0 -13694-3 0  9990
2 48798  87.9020 292.0884 0001279  57.1197 303.0056 13.15547809222732
ONEWEB-0225             
1 48799U 21045AJ  26003.24235666  .00000196  00000+0  48790-3 0  9990
2 48799  87.9005 292.1216 0001726  52.5804 307.5483 13.15547301222737
