[{"OBJECT_NAME":"ONEWEB-0238","OBJECT_ID":"2021-045T","EPOCH":"2026-01-03T06:27:58.926528","MEAN_MOTION":13.1554973,"ECCENTRICITY":0.00013138,"INCLINATION":87.9011,"RA_OF_ASC_NODE":292.0823,"ARG_OF_PERICENTER":89.4351,"MEAN_ANOMALY":270.693,"EPHEMERIS_TYPE":0,"CLASSIFICATION_TYPE":"U","NORAD_CAT_ID":48784,"ELEMENT_SET_NO":999,"REV_AT_EPOCH":22269,"BSTAR":0.00024405892,"MEAN_MOTION_DOT":1.05e-6,"MEAN_MOTION_DDOT":0},{"OBJECT_NAME":"ONEWEB-0240","OBJECT_ID":"2021-045U","EPOCH":"2026-01-03T06:58:34.310496","MEAN_MOTION":13.15547441,"ECCENTRICITY":0.00014013,"INCLINATION":87.9019,"RA_OF_ASC_NODE":292.0755,"ARG_OF_PERICENTER":65.5957,"MEAN_ANOMALY":294.5319,"EPHEMERIS_TYPE":0,"CLASSIFICATION_TYPE":"U","NORAD_CAT_ID":48785,"ELEMENT_SET_NO":999,"REV_AT_EPOCH":22272,"BSTAR":-9.019098e-5,"MEAN_MOTION_DOT":-2.1e-7,"MEAN_MOTION_DDOT":0},{"OBJECT_NAME":"ONEWEB-0246","OBJECT_ID":"2021-045V","EPOCH":"2026-01-03T06:50:35.134368","MEAN_MOTION":13.15547575,"ECCENTRICITY":0.00017609,"INCLINATION":87.9019,"RA_OF_ASC_NODE":292.0864,"ARG_OF_PERICENTER":72.8068,"MEAN_ANOMALY":287.3255,"EPHEMERIS_TYPE":0,"CLASSIFICATION_TYPE":"U","NORAD_CAT_ID":48786,"ELEMENT_SET_NO":999,"REV_AT_EPOCH":22259,"BSTAR":-0.00026264631,"MEAN_MOTION_DOT":-8.6e-7,"MEAN_MOTION_DDOT":0},{"OBJECT_NAME":"ONEWEB-0210","OBJECT_ID":"2021-045W","EPOCH":"2026-01-03T06:14:05.005824","MEAN_MOTION":13.15548415,"ECCENTRICITY":0.00020093,"INCLINATION":87.9011,"RA_OF_ASC_NODE":292.0902,"ARG_OF_PERICENTER":58.8594,"MEAN_ANOMALY":301.2734,"EPHEMERIS_TYPE":0,"CLASSIFICATION_TYPE":"U","NORAD_CAT_ID":48787,"ELEMENT_SET_NO":999,"REV_AT_EPOCH":22263,"BSTAR":0.00052542338,"MEAN_MOTION_DOT":2.11e-6,"MEAN_MOTION_DDOT":0},{"OBJECT_NAME":"ONEWEB-0214","OBJECT_ID":"2021-045X","EPOCH":"2026-01-03T06:26:38.077728","MEAN_MOTION":13.15550488,"ECCENTRICITY":0.00019999,"INCLINATION":87.9021,"RA_OF_ASC_NODE":292.0816,"ARG_OF_PERICENTER":66.6563,"MEAN_ANOMALY":293.4777,"EPHEMERIS_TYPE":0,"CLASSIFICATION_TYPE":"U","NORAD_CAT_ID":48788,"ELEMENT_SET_NO":999,"REV_AT_EPOCH":22260,"BSTAR":0.00029385478,"MEAN_MOTION_DOT":1.23e-6,"MEAN_MOTION_DDOT":0},{"OBJECT_NAME":"ONEWEB-0221","OBJECT_ID":"2021-045Y","EPOCH":"2026-01-03T06:36:54.274752","MEAN_MOTION":13.15548249,"ECCENTRICITY":0.00015827,"INCLINATION":87.9013,"RA_OF_ASC_NODE":292.0931,"ARG_OF_PERICENTER":67.3765,"MEAN_ANOMALY":292.7532,"EPHEMERIS_TYPE":0,"CLASSIFICATION_TYPE":"U","NORAD_CAT_ID":48789,"ELEMENT_SET_NO":999,"REV_AT_EPOCH":22269,"BSTAR":-0.00017569146,"MEAN_MOTION_DOT":-5.3e-7,"MEAN_MOTION_DDOT":0},{"OBJECT_NAME":"ONEWEB-0213","OBJECT_ID":"2021-045Z","EPOCH":"2026-01-03T06:20:55.725504","MEAN_MOTION":13.15548091,"ECCENTRICITY":0.00017563,"INCLINATION":87.9003,"RA_OF_ASC_NODE":292.1012,"ARG_OF_PERICENTER":62.5702,"MEAN_ANOMALY":297.5607,"EPHEMERIS_TYPE":0,"CLASSIFICATION_TYPE":"U","NORAD_CAT_ID":48790,"ELEMENT_SET_NO":999,"REV_AT_EPOCH":22275,"BSTAR":0.00037288955,"MEAN_MOTION_DOT":1.53e-6,"MEAN_MOTION_DDOT":0},{"OBJECT_NAME":"ONEWEB-0212","OBJECT_ID":"2021-045AA","EPOCH":"2026-01-03T05:47:51.426816","MEAN_MOTION":13.15548315,"ECCENTRICITY":0.0001594,"INCLINATION":87.9014,"RA_OF_ASC_NODE":292.0979,"ARG_OF_PERICENTER":74.5894,"MEAN_ANOMALY":285.5413,"EPHEMERIS_TYPE":0,"CLASSIFICATION_TYPE":"U","NORAD_CAT_ID":48791,"ELEMENT_SET_NO":999,"REV_AT_EPOCH":22274,"BSTAR":0.00086031902,"MEAN_MOTION_DOT":3.37e-6,"MEAN_MOTION_DDOT":0},{"OBJECT_NAME":"ONEWEB-0227","OBJECT_ID":"2021-045AB","EPOCH":"2026-01-03T05:46:42.706848","MEAN_MOTION":13.15548041,"ECCENTRICITY":0.00015663,"INCLINATION":87.9002,"RA_OF_ASC_NODE":292.1062,"ARG_OF_PERICENTER":72.1982,"MEAN_ANOMALY":287.9319,"EPHEMERIS_TYPE":0,"CLASSIFICATION_TYPE":"U","NORAD_CAT_ID":48792,"ELEMENT_SET_NO":999,"REV_AT_EPOCH":22269,"BSTAR":0.00042150885,"MEAN_MOTION_DOT":1.72e-6,"MEAN_MOTION_DDOT":0},{"OBJECT_NAME":"ONEWEB-0226","OBJECT_ID":"2021-045AC","EPOCH":"2026-01-03T05:37:34.704480","MEAN_MOTION":13.15548905,"ECCENTRICITY":0.0001832,"INCLINATION":87.9005,"RA_OF_ASC_NODE":292.1169,"ARG_OF_PERICENTER":64.5917,"MEAN_ANOMALY":295.5403,"EPHEMERIS_TYPE":0,"CLASSIFICATION_TYPE":"U","NORAD_CAT_ID":48793,"ELEMENT_SET_NO":999,"REV_AT_EPOCH":22266,"BSTAR":0.00034726661,"MEAN_MOTION_DOT":1.44e-6,"MEAN_MOTION_DDOT":0},{"OBJECT_NAME":"ONEWEB-0224","OBJECT_ID":"2021-045AD","EPOCH":"2026-01-03T06:34:36.913440","MEAN_MOTION":13.15550186,"ECCENTRICITY":7.469e-5,"INCLINATION":87.9006,"RA_OF_ASC_NODE":292.144,"ARG_OF_PERICENTER":61.5665,"MEAN_ANOMALY":298.5541,"EPHEMERIS_TYPE":0,"CLASSIFICATION_TYPE":"U","NORAD_CAT_ID":48794,"ELEMENT_SET_NO":999,"REV_AT_EPOCH":22259,"BSTAR":6.5495898e-5,"MEAN_MOTION_DOT":3.7e-7,"MEAN_MOTION_DDOT":0},{"OBJECT_NAME":"ONEWEB-0233","OBJECT_ID":"2021-045AE","EPOCH":"2026-01-03T06:41:15.569952","MEAN_MOTION":13.15548195,"ECCENTRICITY":0.00015064,"INCLINATION":87.9003,"RA_OF_ASC_NODE":292.1533,"ARG_OF_PERICENTER":64.2522,"MEAN_ANOMALY":295.8763,"EPHEMERIS_TYPE":0,"CLASSIFICATION_TYPE":"U","NORAD_CAT_ID":48795,"ELEMENT_SET_NO":999,"REV_AT_EPOCH":22261,"BSTAR":-7.7841438e-5,"MEAN_MOTION_DOT":-1.6e-7,"MEAN_MOTION_DDOT":0},{"OBJECT_NAME":"ONEWEB-0190","OBJECT_ID":"2021-045AF","EPOCH":"2026-01-03T06:23:11.309568","MEAN_MOTION":13.15551309,"ECCENTRICITY":0.00017283,"INCLINATION":87.9008,"RA_OF_ASC_NODE":292.1166,"ARG_OF_PERICENTER":49.3572,"MEAN_ANOMALY":310.7709,"EPHEMERIS_TYPE":0,"CLASSIFICATION_TYPE":"U","NORAD_CAT_ID":48796,"ELEMENT_SET_NO":999,"REV_AT_EPOCH":22268,"BSTAR":-1.9473154e-5,"MEAN_MOTION_DOT":5.0e-8,"MEAN_MOTION_DDOT":0},{"OBJECT_NAME":"ONEWEB-0236","OBJECT_ID":"2021-045AG","EPOCH":"2026-01-03T06:48:18.176544","MEAN_MOTION":13.15548201,"ECCENTRICITY":0.00015602,"INCLINATION":87.9007,"RA_OF_ASC_NODE":292.1247,"ARG_OF_PERICENTER":81.6732,"MEAN_ANOMALY":278.4576,"EPHEMERIS_TYPE":0,"CLASSIFICATION_TYPE":"U","NORAD_CAT_ID":48797,"ELEMENT_SET_NO":999,"REV_AT_EPOCH":22257,"BSTAR":-0.00022728905,"MEAN_MOTION_DOT":-7.3e-7,"MEAN_MOTION_DDOT":0},{"OBJECT_NAME":"ONEWEB-0248","OBJECT_ID":"2021-045AH","EPOCH":"2026-01-03T07:06:34.436160","MEAN_MOTION":13.15547809,"ECCENTRICITY":0.00012792,"INCLINATION":87.902,"RA_OF_ASC_NODE":292.0884,"ARG_OF_PERICENTER":57.1197,"MEAN_ANOMALY":303.0056,"EPHEMERIS_TYPE":0,"CLASSIFICATION_TYPE":"U","NORAD_CAT_ID":48798,"ELEMENT_SET_NO":999,"REV_AT_EPOCH":22273,"BSTAR":-0.00013694049,"MEAN_MOTION_DOT":-3.9e-7,"MEAN_MOTION_DDOT":0},{"OBJECT_NAME":"ONEWEB-0225","OBJECT_ID":"2021-045AJ","EPOCH":"2026-01-03T05:48:59.615424","MEAN_MOTION":13.15547301,"ECCENTRICITY":0.00017265,"INCLINATION":87.9005,"RA_OF_ASC_NODE":292.1216,"ARG_OF_PERICENTER":52.5804,"MEAN_ANOMALY":307.5483,"EPHEMERIS_TYPE":0,"CLASSIFICATION_TYPE":"U","NORAD_CAT_ID":48799,"ELEMENT_SET_NO":999,"REV_AT_EPOCH":22273,"BSTAR":0.00048789569,"MEAN_MOTION_DOT":1.96e-6,"MEAN_MOTION_DDOT":0}]
